[{"OBJECT_NAME":"OBJECT F","OBJECT_ID":"2025-055F","EPOCH":"2026-03-09T23:18:16.432128","MEAN_MOTION":15.14826081,"ECCENTRICITY":0.00132444,"INCLINATION":97.6376,"RA_OF_ASC_NODE":208.0739,"ARG_OF_PERICENTER":110.0651,"MEAN_ANOMALY":250.2008,"EPHEMERIS_TYPE":0,"CLASSIFICATION_TYPE":"U","NORAD_CAT_ID":63296,"ELEMENT_SET_NO":999,"REV_AT_EPOCH":5397,"BSTAR":0.00069816497,"MEAN_MOTION_DOT":0.00012945,"MEAN_MOTION_DDOT":0},{"OBJECT_NAME":"GEESAT-4 10","OBJECT_ID":"2025-170K","EPOCH":"2026-03-09T23:21:58.377312","MEAN_MOTION":15.17890105,"ECCENTRICITY":0.0016786,"INCLINATION":49.9867,"RA_OF_ASC_NODE":229.1245,"ARG_OF_PERICENTER":279.3492,"MEAN_ANOMALY":80.5562,"EPHEMERIS_TYPE":0,"CLASSIFICATION_TYPE":"U","NORAD_CAT_ID":65128,"ELEMENT_SET_NO":999,"REV_AT_EPOCH":3230,"BSTAR":0.00064105503,"MEAN_MOTION_DOT":0.0001293,"MEAN_MOTION_DDOT":0}]
